[{"OBJECT_NAME":"STARLINK-5312","OBJECT_ID":"2023-010AU","EPOCH":"2026-03-09T23:36:49.932864","MEAN_MOTION":14.98338959,"ECCENTRICITY":0.00028058,"INCLINATION":70.0011,"RA_OF_ASC_NODE":3.8251,"ARG_OF_PERICENTER":256.2207,"MEAN_ANOMALY":103.864,"EPHEMERIS_TYPE":0,"CLASSIFICATION_TYPE":"U","NORAD_CAT_ID":55311,"ELEMENT_SET_NO":999,"REV_AT_EPOCH":17468,"BSTAR":-6.916796e-6,"MEAN_MOTION_DOT":-1.76e-6,"MEAN_MOTION_DDOT":0},{"OBJECT_NAME":"BRO-15","OBJECT_ID":"2024-149CP","EPOCH":"2026-03-09T18:52:33.918816","MEAN_MOTION":14.95892184,"ECCENTRICITY":0.00093198,"INCLINATION":97.6864,"RA_OF_ASC_NODE":146.0377,"ARG_OF_PERICENTER":65.4416,"MEAN_ANOMALY":294.7775,"EPHEMERIS_TYPE":0,"CLASSIFICATION_TYPE":"U","NORAD_CAT_ID":60553,"ELEMENT_SET_NO":999,"REV_AT_EPOCH":8514,"BSTAR":7.8021491e-5,"MEAN_MOTION_DOT":8.16e-6,"MEAN_MOTION_DDOT":0}]
